      2.10          N: GNSS NAV DATA                        RINEX VERSION / TYPE
fic2rin                                 12/22/2019 00:20:37 PGM / RUN BY / DATE
                                                            END OF HEADER
18 19 12 21  4  0  0.0 1.080497168005e-04 2.501110429876e-12 0.000000000000e+00
    8.200000000000e+01-3.218750000000e+00 4.688766734526e-09-7.969702374665e-02
   -8.568167686462e-08 1.561263715848e-02 9.693205356598e-06 5.153658866882e+03
    5.328000000000e+05-1.564621925354e-07-3.900159875371e-01 3.725290298462e-08
    9.570552972404e-01 1.928437500000e+02 1.448737825608e+00-8.412136113520e-09
    3.064413359402e-10 1.000000000000e+00 2.084000000000e+03 0.000000000000e+00
    2.400000000000e+00 6.300000000000e+01-5.587935447693e-09 8.200000000000e+01
    5.256000000000e+05 4.000000000000e+00
28 19 12 21  4  0  0.0 7.495479658246e-04-2.046363078989e-12 0.000000000000e+00
    3.400000000000e+01 1.746875000000e+01 4.356252883990e-09 3.135887028773e+00
    8.568167686462e-07 1.899154088460e-02 3.166496753693e-06 5.153710189819e+03
    5.328000000000e+05 3.725290298462e-07-2.339957265458e+00 1.080334186554e-07
    9.796663273091e-01 3.252500000000e+02-1.427751295847e+00-7.955688529218e-09
   -2.964409193827e-11 1.000000000000e+00 2.084000000000e+03 0.000000000000e+00
    4.850000000000e+00 0.000000000000e+00-1.117587089539e-08 3.400000000000e+01
    5.256000000000e+05 4.000000000000e+00
 4 19 12 21  4  0  0.0-2.325605601072e-05-4.888534022029e-12 0.000000000000e+00
    3.400000000000e+01-3.725000000000e+01 4.455185576362e-09 1.449270539912e+00
   -1.845881342888e-06 4.126001149416e-04 1.063384115696e-05 5.153737668991e+03
    5.328000000000e+05-6.332993507385e-08 1.788934673384e+00-7.450580596924e-08
    9.594982753431e-01 1.741562500000e+02-2.658444561081e+00-7.959974422028e-09
   -3.417999516257e-10 1.000000000000e+00 2.084000000000e+03 0.000000000000e+00
    2.400000000000e+00 6.300000000000e+01-4.190951585770e-09 8.020000000000e+02
    5.260200000000e+05 4.000000000000e+00
30 19 12 21  3 59 44.0-1.106630079448e-04-8.640199666843e-12 0.000000000000e+00
    3.200000000000e+01 8.306250000000e+01 4.885917803802e-09-5.050892757957e-01
    4.390254616737e-06 4.149777232669e-03 8.853152394295e-06 5.153718996048e+03
    5.327840000000e+05 5.029141902924e-08 2.842252396981e+00 0.000000000000e+00
    9.397184803724e-01 1.961250000000e+02-2.923368555132e+00-8.311417632477e-09
    2.096515899731e-10 1.000000000000e+00 2.084000000000e+03 0.000000000000e+00
    2.400000000000e+00 0.000000000000e+00 3.725290298462e-09 3.200000000000e+01
    5.265900000000e+05 4.000000000000e+00
30 19 12 21  5 59 44.0-1.107254065573e-04-8.640199666843e-12 0.000000000000e+00
    8.200000000000e+01 8.125000000000e+01 4.907704425588e-09 5.450221775614e-01
    4.313886165619e-06 4.148347070441e-03 9.441748261452e-06 5.153716295242e+03
    5.399840000000e+05 3.725290298462e-08 2.842192660184e+00 5.401670932770e-08
    9.397200222880e-01 1.855625000000e+02-2.923323011566e+00-8.291416799362e-09
    1.935794919343e-10 1.000000000000e+00 2.084000000000e+03 0.000000000000e+00
    2.400000000000e+00 0.000000000000e+00 3.725290298462e-09 8.200000000000e+01
    5.328000000000e+05 4.000000000000e+00
 2 19 12 21  6  0  0.0-3.704428672791e-04-7.389644451905e-12 0.000000000000e+00
    5.200000000000e+01-1.434375000000e+01 4.466614623856e-09 1.564335562684e+00
   -1.102685928345e-06 1.959552569315e-02 9.667128324509e-06 5.153604391098e+03
    5.400000000000e+05-1.378357410431e-07-4.034993874834e-01-5.550682544708e-07
    9.575547491760e-01 1.938750000000e+02-1.687526615549e+00-8.053192590653e-09
    3.035840740667e-10 1.000000000000e+00 2.084000000000e+03 0.000000000000e+00
    2.400000000000e+00 0.000000000000e+00-1.769512891769e-08 5.200000000000e+01
    5.328000000000e+05 4.000000000000e+00
 1 19 12 21  6  0  0.0-2.365210093558e-04-1.227817847393e-11 0.000000000000e+00
    4.400000000000e+01-3.406250000000e+00 4.162673392055e-09 1.270780970065e+00
   -3.166496753693e-08 9.200620232150e-03 1.006387174129e-05 5.153644515991e+03
    5.400000000000e+05-5.774199962616e-08-3.304990950710e-01 1.639127731323e-07
    9.785236873479e-01 1.952500000000e+02 7.597320922454e-01-7.996047353182e-09
    3.271564845236e-10 1.000000000000e+00 2.084000000000e+03 0.000000000000e+00
    2.400000000000e+00 0.000000000000e+00 5.587935447693e-09 4.400000000000e+01
    5.328000000000e+05 4.000000000000e+00
 5 19 12 21  6  0  0.0-4.981178790331e-06-5.684341886081e-13 0.000000000000e+00
    3.300000000000e+01-1.596875000000e+01 5.049853203798e-09-2.149148123069e+00
   -8.344650268555e-07 5.806522094645e-03 5.254521965981e-06 5.153563093185e+03
    5.400000000000e+05 9.499490261078e-08 6.807782060134e-01-2.235174179077e-08
    9.513169103735e-01 2.730937500000e+02 8.049304121483e-01-8.358919611125e-09
    1.192906832215e-10 1.000000000000e+00 2.084000000000e+03 0.000000000000e+00
    2.400000000000e+00 0.000000000000e+00-1.117587089539e-08 3.300000000000e+01
    5.328000000000e+05 4.000000000000e+00
 6 19 12 21  6  0  0.0-1.596598885953e-04-1.091393642128e-11 0.000000000000e+00
    2.700000000000e+01-6.093750000000e+00 4.048740074847e-09 1.630141437568e+00
   -3.576278686523e-07 1.704000867903e-03 9.723007678986e-06 5.153721010208e+03
    5.400000000000e+05 2.980232238770e-08-3.387577840386e-01-4.097819328308e-08
    9.781245038174e-01 1.990000000000e+02-1.203312874994e+00-7.776395346651e-09
    2.757257707994e-10 1.000000000000e+00 2.084000000000e+03 0.000000000000e+00
    2.400000000000e+00 0.000000000000e+00 4.656612873077e-09 2.700000000000e+01
    5.328000000000e+05 4.000000000000e+00
 3 19 12 21  6  0  0.0-5.676969885826e-05-6.934897101019e-12 0.000000000000e+00
    5.600000000000e+01-1.765625000000e+01 4.878774649119e-09 9.716798435086e-02
   -9.480863809586e-07 2.615225268528e-03 5.498528480530e-06 5.153642908096e+03
    5.400000000000e+05 1.117587089539e-08 7.104887599658e-01 6.891787052155e-08
    9.644092650026e-01 2.737187500000e+02 7.822959095590e-01-8.322132364503e-09
    1.964367538078e-11 1.000000000000e+00 2.084000000000e+03 0.000000000000e+00
    2.400000000000e+00 0.000000000000e+00 2.328306436539e-09 5.600000000000e+01
    5.328000000000e+05 4.000000000000e+00
 8 19 12 21  6  0  0.0-1.747626811266e-05-1.364242052659e-12 0.000000000000e+00
    1.400000000000e+01-7.506250000000e+01 4.357324357192e-09-2.610742434942e+00
   -3.764405846596e-06 4.883914021775e-03 8.970499038696e-06 5.153603050232e+03
    5.400000000000e+05-7.450580596924e-08-1.399003257141e+00-1.862645149231e-09
    9.699375461120e-01 2.123125000000e+02-2.241541934247e-01-8.006047769739e-09
   -2.400099973798e-10 1.000000000000e+00 2.084000000000e+03 0.000000000000e+00
    2.400000000000e+00 0.000000000000e+00 5.122274160385e-09 1.400000000000e+01
    5.328000000000e+05 4.000000000000e+00
 7 19 12 21  6  0  0.0-1.745508052409e-04-8.185452315956e-12 0.000000000000e+00
    6.100000000000e+01 8.515625000000e+01 4.610549190737e-09 5.680669013980e-01
    4.580244421959e-06 1.319698931184e-02 9.873881936073e-06 5.153715847015e+03
    5.400000000000e+05-1.136213541031e-07 2.817130553298e+00 1.825392246246e-07
    9.543362562557e-01 1.870937500000e+02-2.420640127755e+00-8.262129865158e-09
    1.242908915002e-10 1.000000000000e+00 2.084000000000e+03 0.000000000000e+00
    2.400000000000e+00 0.000000000000e+00-1.117587089539e-08 6.100000000000e+01
    5.328000000000e+05 4.000000000000e+00
22 19 12 21  6  0  0.0-7.785712368786e-04-1.818989403546e-12 0.000000000000e+00
    1.200000000000e+01-1.168750000000e+01 5.639163465222e-09 2.511942793689e+00
   -6.407499313354e-07 6.913909572177e-03 4.911795258522e-06 5.153613939285e+03
    5.400000000000e+05 8.381903171539e-08 6.298124032660e-01 2.048909664154e-08
    9.292385829054e-01 2.646562500000e+02-1.250434478667e+00-8.582500352732e-09
    3.464430021702e-11 1.000000000000e+00 2.084000000000e+03 0.000000000000e+00
    2.400000000000e+00 0.000000000000e+00-1.816079020500e-08 1.200000000000e+01
    5.328000000000e+05 4.000000000000e+00
24 19 12 21  6  0  0.0-6.486661732197e-06-4.547473508865e-13 0.000000000000e+00
    1.100000000000e+01 8.168750000000e+01 4.909133056525e-09 1.509079683912e+00
    4.263594746590e-06 9.315065806732e-03 9.870156645775e-06 5.153674606323e+03
    5.400000000000e+05-1.490116119385e-07 2.747700521236e+00 1.061707735062e-07
    9.375195696703e-01 1.768437500000e+02 6.367129424955e-01-8.350347825504e-09
    4.500187450871e-11 1.000000000000e+00 2.084000000000e+03 0.000000000000e+00
    3.400000000000e+00 0.000000000000e+00 2.793967723846e-09 1.100000000000e+01
    5.328000000000e+05 4.000000000000e+00
16 19 12 21  6  0  0.0-1.051882281899e-04-3.865352482535e-12 0.000000000000e+00
    4.900000000000e+01 9.031250000000e+00 4.416969698803e-09-1.887112170688e+00
    2.011656761169e-07 1.112164917868e-02 3.421679139137e-06 5.153681970596e+03
    5.400000000000e+05 7.636845111847e-08-2.343846371729e+00-9.313225746155e-08
    9.806783842768e-01 3.200625000000e+02 5.829123190378e-01-8.174626220280e-09
    7.571743964957e-11 1.000000000000e+00 2.084000000000e+03 0.000000000000e+00
    2.400000000000e+00 0.000000000000e+00-1.024454832077e-08 4.900000000000e+01
    5.328000000000e+05 4.000000000000e+00
15 19 12 21  6  0  0.0-2.642138861120e-04 2.614797267597e-12 0.000000000000e+00
    5.800000000000e+01-4.103125000000e+01 5.195573559350e-09 2.564182621070e+00
   -2.261251211166e-06 1.210704282857e-02 9.080395102501e-06 5.153613935471e+03
    5.400000000000e+05-1.117587089539e-08 1.656797048453e+00-1.527369022369e-07
    9.276613845916e-01 1.872500000000e+02 8.514336696071e-01-8.227485564941e-09
   -3.403713206889e-10 1.000000000000e+00 2.084000000000e+03 0.000000000000e+00
    2.400000000000e+00 0.000000000000e+00-1.117587089539e-08 5.800000000000e+01
    5.328000000000e+05 4.000000000000e+00
